MEAN_MOTION;ECCENTRICITY;INCLINATION;RA_OF_ASC_NODE;ARG_OF_PERICENTER;MEAN_ANOMALY;BSTAR;MEAN_MOTION_DOT;MEAN_MOTION_DDOT;TYPE
14.89290941;0.0037881;64.5514;172.5413;308.31;51.4604;1.7702E-5;1.0E-7;0;Amateur
14.89291202;0.0037958;64.5513;169.8141;308.1746;51.5945;1.6745E-5;1.0E-8;0;Amateur
14.89291427;0.0037984;64.5512;168.7651;308.156;51.6129;1.7995E-5;1.3E-7;0;Amateur
14.89291781;0.003804;64.5512;166.6672;308.0495;51.7184;1.987E-5;3.1E-7;0;Amateur
14.89291842;0.003806;64.5511;166.0378;308.0262;51.7414;1.9758E-5;3.0E-7;0;Amateur
14.89292111;0.0038131;64.5511;163.7302;307.9163;51.8501;1.9688E-5;2.9E-7;0;Amateur
14.89292244;0.0038147;64.551;163.1008;307.8873;51.8788;2.0751E-5;3.9E-7;0;Amateur
14.89292562;0.0038234;64.5509;160.1638;307.7822;51.9827;2.0347E-5;3.5E-7;0;Amateur
14.89292969;0.0038321;64.5508;156.8071;307.6553;52.1081;2.0597E-5;3.8E-7;0;Amateur
14.89293231;0.0038384;64.5507;154.0797;307.5359;52.2264;1.9875E-5;3.1E-7;0;Amateur
14.89293661;0.0038472;64.5507;151.1426;307.3962;52.3647;2.1207E-5;4.4E-7;0;Amateur
14.89293889;0.0038496;64.5507;149.884;307.3704;52.3901;2.1912E-5;5.0E-7;0;Amateur
14.89294119;0.0038577;64.5507;147.1567;307.2638;52.4955;1.9355E-5;2.6E-7;0;Amateur
14.89294391;0.0038629;64.5506;144.849;307.1617;52.5966;1.9194E-5;2.4E-7;0;Amateur
14.89294398;0.0038632;64.5506;144.6392;307.1527;52.6055;1.8956E-5;2.2E-7;0;Amateur
14.89294813;0.0038714;64.5505;141.7021;307.0351;52.7219;2.0082E-5;3.3E-7;0;Amateur
14.8929484;0.0038721;64.5505;141.4923;307.0282;52.7286;2.0103E-5;3.3E-7;0;Amateur
14.89295116;0.0038802;64.5503;138.5551;306.9041;52.8515;1.894E-5;2.2E-7;0;Amateur
14.89295101;0.0038798;64.5503;138.3453;306.8907;52.8648;1.8504E-5;1.8E-7;0;Amateur
14.89295407;0.0038886;64.5502;135.1983;306.7639;52.9902;1.7995E-5;1.3E-7;0;Amateur
14.89295462;0.0038892;64.5501;134.7786;306.7431;53.0109;1.7876E-5;1.1E-7;0;Amateur
14.89295702;0.0038952;64.55;132.261;306.6404;53.1126;1.7838E-5;1.1E-7;0;Amateur
14.89295874;0.0039012;64.5499;130.1629;306.5556;53.1964;1.675E-5;1.0E-8;0;Amateur
14.8929603;0.0039051;64.5499;129.114;306.5218;53.2297;1.8021E-5;1.3E-7;0;Amateur
14.89296335;0.003913;64.5497;126.1766;306.4122;53.3381;1.8551E-5;1.8E-7;0;Amateur
14.8929645;0.003916;64.5498;125.1276;306.367;53.3828;1.8591E-5;1.8E-7;0;Amateur
14.89296654;0.0039209;64.5497;123.0295;306.2773;53.4716;1.8954E-5;2.2E-7;0;Amateur
14.89297023;0.0039291;64.5496;119.8824;306.1443;53.6033;1.9736E-5;2.9E-7;0;Amateur
14.89297377;0.0039379;64.5495;116.7353;306.0245;53.7217;1.9756E-5;3.0E-7;0;Amateur
14.89297377;0.0039379;64.5495;116.7353;306.0245;53.7217;1.9756E-5;3.0E-7;0;Amateur
14.89297818;0.003945;64.5495;113.798;305.9039;53.8411;2.1143E-5;4.3E-7;0;Amateur
14.89298238;0.0039492;64.5495;111.4901;305.7962;53.9479;2.2303E-5;5.4E-7;0;Amateur
14.89298334;0.0039515;64.5495;110.6508;305.7672;53.9765;2.2507E-5;5.6E-7;0;Amateur
14.89298758;0.0039587;64.5495;107.7135;305.6487;54.0938;2.262E-5;5.7E-7;0;Amateur
14.89299276;0.003967;64.5496;104.3566;305.5105;54.2306;2.2987E-5;6.1E-7;0;Amateur
14.89299472;0.0039728;64.5496;102.4683;305.4531;54.2872;2.1223E-5;4.4E-7;0;Amateur
14.8929998;0.0039822;64.5497;98.9017;305.3148;54.4239;2.0987E-5;4.1E-7;0;Amateur
14.89300151;0.0039842;64.5497;98.0624;305.2937;54.4448;2.1884E-5;5.0E-7;0;Amateur
14.89300814;0.0039916;64.5497;94.9152;305.175;54.5623;2.4878E-5;7.9E-7;0;Amateur
14.89301524;0.0039991;64.5498;91.9778;305.0402;54.6958;2.8646E-5;1.15E-6;0;Amateur
14.89302092;0.0040056;64.5499;89.4601;304.9315;54.8033;3.1029E-5;1.38E-6;0;Amateur
14.89302191;0.0040072;64.5499;88.8307;304.9086;54.8259;3.092E-5;1.37E-6;0;Amateur
14.89302653;0.004014;64.5501;85.8933;304.8101;54.9234;3.0314E-5;1.32E-6;0;Amateur
14.89303304;0.0040218;64.5503;82.7462;304.6733;55.0589;3.1E-5;1.38E-6;0;Amateur
14.89303658;0.0040289;64.5504;79.599;304.5412;55.1897;2.671E-5;9.7E-7;0;Amateur
14.89304242;0.0040363;64.5507;76.4519;304.4166;55.313;2.6453E-5;9.4E-7;0;Amateur
14.89304932;0.0040461;64.5509;71.6265;304.2293;55.4985;2.2204E-5;5.3E-7;0;Amateur
14.8930548;0.0040536;64.5511;68.4796;304.1161;55.6105;2.2407E-5;5.5E-7;0;Amateur
14.89305643;0.0040576;64.5512;67.2207;304.0714;55.6546;2.2384E-5;5.5E-7;0;Amateur
14.89305984;0.0040634;64.5513;64.7031;303.9632;55.7618;2.1327E-5;4.5E-7;0;Amateur
14.89306271;0.0040682;64.5514;62.3953;303.8681;55.856;2.0291E-5;3.5E-7;0;Amateur
14.89306352;0.0040704;64.5515;61.5561;303.8388;55.8849;2.0179E-5;3.4E-7;0;Amateur
14.89306695;0.0040751;64.5516;59.2484;303.7472;55.9757;2.0264E-5;3.4E-7;0;Amateur
14.8930679;0.0040775;64.5517;58.4092;303.7183;56.0042;2.0653E-5;3.8E-7;0;Amateur
14.89307091;0.004082;64.5518;56.1014;303.6286;56.0931;2.0175E-5;3.4E-7;0;Amateur
14.89307199;0.0040846;64.5518;55.2622;303.5968;56.1245;2.0973E-5;4.1E-7;0;Amateur
14.89307516;0.0040895;64.552;52.9545;303.5013;56.2191;2.0784E-5;3.9E-7;0;Amateur
14.89307598;0.0040927;64.552;52.1153;303.4727;56.2473;2.1233E-5;4.4E-7;0;Amateur
14.89307626;0.0040928;64.552;51.9055;303.4641;56.2558;2.1272E-5;4.4E-7;0;Amateur
14.89307879;0.004097;64.5522;49.8076;303.3829;56.3362;2.0558E-5;3.7E-7;0;Amateur
14.89308031;0.0041003;64.5522;48.9684;303.3558;56.3629;2.2118E-5;5.2E-7;0;Amateur
14.89308046;0.0041002;64.5522;48.7586;303.3443;56.3744;2.1994E-5;5.1E-7;0;Amateur
14.89308339;0.0041057;64.5523;45.8216;303.2327;56.4849;2.0988E-5;4.1E-7;0;Amateur
14.89308451;0.0041069;64.5524;45.1922;303.2132;56.5043;2.1117E-5;4.3E-7;0;Amateur
14.89308661;0.004111;64.5524;43.5139;303.1351;56.5816;2.0624E-5;3.8E-7;0;Amateur
14.89308664;0.0041119;64.5524;42.6748;303.0794;56.637;1.9448E-5;2.6E-7;0;Amateur
14.89308974;0.0041176;64.5525;40.3672;302.9785;56.7368;1.8975E-5;2.2E-7;0;Amateur
14.89309082;0.0041201;64.5525;39.5281;302.9616;56.7535;1.9371E-5;2.6E-7;0;Amateur
14.89309353;0.0041243;64.5526;37.4302;302.8741;56.8402;1.8667E-5;1.9E-7;0;Amateur
14.89309529;0.0041266;64.5526;35.9617;302.812;56.9018;1.8959E-5;2.2E-7;0;Amateur
14.89309697;0.0041296;64.5526;34.2835;302.7347;56.9785;1.7979E-5;1.2E-7;0;Amateur
14.89310012;0.004135;64.5526;31.3465;302.6148;57.0973;1.7279E-5;5.0E-8;0;Amateur
14.89310015;0.0041357;64.5526;31.1367;302.6055;57.1065;1.7052E-5;3.0E-8;0;Amateur
14.89310345;0.0041425;64.5526;28.1996;302.4884;57.2223;1.7007E-5;3.0E-8;0;Amateur
14.89310339;0.0041432;64.5526;27.9898;302.4791;57.2316;1.6693E-5;0;0;Amateur
14.89310702;0.0041498;64.5526;25.0529;302.3619;57.3476;1.7546E-5;8.0E-8;0;Amateur
14.8931072;0.0041504;64.5526;24.8431;302.3534;57.356;1.7693E-5;9.0E-8;0;Amateur
14.89311033;0.004153;64.5526;23.5842;302.315;57.3939;2.0387E-5;3.6E-7;0;Amateur
14.89311149;0.0041563;64.5525;21.9058;302.2326;57.4757;1.9063E-5;2.3E-7;0;Amateur
14.89311177;0.004157;64.5525;21.6961;302.2208;57.4874;1.9388E-5;2.6E-7;0;Amateur
14.89311265;0.004159;64.5525;20.8569;302.1975;57.5104;1.9585E-5;2.8E-7;0;Amateur
14.89311511;0.0041625;64.5525;18.7589;302.0981;57.609;1.9263E-5;2.5E-7;0;Amateur
14.8931153;0.004163;64.5525;18.5492;302.0897;57.6173;1.9416E-5;2.6E-7;0;Amateur
14.89311589;0.004164;64.5524;17.9198;302.063;57.6438;1.9451E-5;2.6E-7;0;Amateur
14.89311916;0.0041692;64.5524;15.612;301.968;57.7379;1.9993E-5;3.2E-7;0;Amateur
14.89311936;0.0041699;64.5524;15.4022;301.9592;57.7465;2.0151E-5;3.3E-7;0;Amateur
14.89312155;0.0041766;64.5524;12.4651;301.8494;57.8552;1.7916E-5;1.2E-7;0;Amateur
14.89312178;0.004177;64.5524;12.2554;301.8411;57.8634;1.8078E-5;1.3E-7;0;Amateur
14.89312545;0.0041818;64.5523;9.3182;301.6988;58.0047;1.7964E-5;1.2E-7;0;Amateur
14.8931291;0.004189;64.5522;6.3811;301.5653;58.1369;1.7512E-5;8.0E-8;0;Amateur
14.89313076;0.0041911;64.5521;5.542;301.5512;58.1507;1.8604E-5;1.8E-7;0;Amateur
14.89313509;0.0041984;64.552;1.9755;301.4181;58.2825;1.7722E-5;1.0E-7;0;Amateur
14.89313746;0.0042011;64.552;0.5069;301.3532;58.3469;1.8408E-5;1.6E-7;0;Amateur
14.89314118;0.0042089;64.5518;356.9403;301.2065;58.4921;1.7708E-5;1.0E-7;0;Amateur
14.89314128;0.0042094;64.5518;356.7305;301.1998;58.4988;1.767E-5;9.0E-8;0;Amateur
14.89314203;0.0042092;64.5518;356.1011;301.1697;58.5288;1.7651E-5;9.0E-8;0;Amateur
14.89314731;0.0042137;64.5517;353.7933;301.0638;58.6338;2.167E-5;4.8E-7;0;Amateur
14.89314755;0.0042142;64.5517;353.5835;301.0577;58.6398;2.1764E-5;4.9E-7;0;Amateur
14.89315;0.0042174;64.5516;352.3246;301.0141;58.6829;2.3214E-5;6.3E-7;0;Amateur
14.89315009;0.0042207;64.5515;350.6461;300.929;58.7674;1.9605E-5;2.8E-7;0;Amateur
14.89315045;0.0042209;64.5515;350.4363;300.9225;58.7738;1.9807E-5;3.0E-7;0;Amateur
14.89315563;0.0042269;64.5514;347.499;300.7982;58.8969;2.1675E-5;4.8E-7;0;Amateur
14.89315588;0.0042272;64.5514;347.2891;300.7927;58.9023;2.1669E-5;4.8E-7;0;Amateur
14.89315669;0.0042281;64.5513;346.8695;300.7756;58.9194;2.2087E-5;5.2E-7;0;Amateur
14.89316315;0.0042342;64.5513;343.9321;300.6545;59.0393;2.5553E-5;8.5E-7;0;Amateur
14.8931686;0.0042434;64.5512;339.9456;300.4974;59.1948;2.3752E-5;6.8E-7;0;Amateur
14.89317046;0.0042479;64.5511;338.0574;300.4235;59.2679;2.1824E-5;4.9E-7;0;Amateur
14.89317493;0.0042522;64.5511;336.1692;300.3533;59.3374;2.4058E-5;7.1E-7;0;Amateur
14.89317464;0.0042548;64.5511;334.9103;300.2926;59.3976;2.0256E-5;3.4E-7;0;Amateur
14.89317677;0.0042585;64.551;333.022;300.2095;59.48;1.8667E-5;1.9E-7;0;Amateur
14.89317847;0.0042614;64.551;331.7631;300.1602;59.5288;1.8389E-5;1.6E-7;0;Amateur
14.89318277;0.0042657;64.551;328.8259;300.0018;59.6861;1.7821E-5;1.1E-7;0;Amateur
14.89318303;0.004266;64.5509;328.6161;299.9943;59.6935;1.7791E-5;1.0E-7;0;Amateur
14.8931864;0.0042702;64.5509;326.518;299.9024;59.7846;1.7993E-5;1.2E-7;0;Amateur
14.89318652;0.004272;64.5509;325.6787;299.8633;59.8234;1.6849E-5;1.0E-8;0;Amateur
14.89318684;0.0042723;64.5509;325.4689;299.8521;59.8345;1.6906E-5;2.0E-8;0;Amateur
14.89318947;0.0042784;64.5509;322.5316;299.7286;59.9568;1.549E-5;-1.2E-7;0;Amateur
14.89318983;0.0042787;64.5509;322.3218;299.7116;59.9737;1.5633E-5;-1.1E-7;0;Amateur
14.89319139;0.0042815;64.5508;320.6434;299.6175;60.0671;1.4804E-5;-1.9E-7;0;Amateur
14.89319239;0.0042844;64.5508;319.1746;299.5551;60.1291;1.4671E-5;-2.0E-7;0;Amateur
